BREEZE-M R/B            
1 38746U 12044C   22046.74717074  .00007130  00000-0  42281-3 0  9991
2 38746  49.6928 168.6745 2374783 276.8237  57.0352 10.57133098350999
BREEZE-M DEB            
1 38884U 12044R   22046.64741398  .00013038  33481-5  36103-3 0  9993
2 38884  50.0079 156.0794 2241029  96.9232 288.9597 10.96104649363186
BREEZE-M DEB            
1 38888U 12044V   22046.77766899  .00054053  57687-5  76763-3 0  9996
2 38888  50.0201 332.7474 1560228  47.1541 325.0234 12.47948344391593
BREEZE-M DEB            
1 38921U 12044BE  22046.82492537  .00145198  99414-5  97499-3 0  9999
2 38921  50.1704 193.2501 0804317 306.5300  46.4111 14.23750770409065
BREEZE-M DEB            
1 38922U 12044BF  22047.48460611  .00016500  43751-5  38210-3 0  9994
2 38922  50.0546 104.1502 2024651  52.4357 324.3736 11.43382620373668
BREEZE-M DEB            
1 38926U 12044BK  22046.56396245  .00060415  59293-5  85034-3 0  9995
2 38926  49.9836  89.0532 1273128 197.3655 157.9551 13.10193386404507
BREEZE-M DEB            
1 38948U 12044CH  22046.68208420  .00056290  49749-5  85552-3 0  9995
2 38948  50.0599  46.4902 1415601 265.2994  78.5339 12.78144998398134
BREEZE-M DEB            
1 38957U 12044CQ  22046.66111493  .00107206  63599-5  13211-2 0  9991
2 38957  49.9946 153.3164 1364124 204.0198 149.0773 12.92112346394887
BREEZE-M DEB            
1 38959U 12044CS  22017.89730440  .02325005  11231-4  13500-2 0  9992
2 38959  49.9002 238.8708 0098121 199.2590 160.4679 16.07627117384660
BREEZE-M DEB            
1 38960U 12044CT  22047.01764286  .00045261  53855-5  92828-3 0  9997
2 38960  50.1053 265.9643 1676506 125.7532 251.1089 12.17990478385698
BREEZE-M DEB            
1 38961U 12044CU  22046.92953764  .00050954  49286-5  75948-3 0  9990
2 38961  50.0703  31.3862 1414203 270.4821  73.4672 12.78765229391928
BREEZE-M DEB            
1 38971U 12044DE  22047.25565087  .00068974  63804-5  91535-3 0  9998
2 38971  50.0530  56.6317 1208348 187.1432 171.0734 13.25134336404702
